STARLINK-30972          
1 58721U 24002S   26068.73541095 -.00000025  00000+0  11308-4 0  9991
2 58721  53.1593 229.6261 0001879  93.8971 266.2245 15.30196348122025
YAOGAN-43 01G           
1 60464U 24148G   26068.44348481  .00010133  00000+0  35873-3 0  9993
2 60464  35.0006  62.0013 0007382 306.3543  53.6492 15.28332833 87004
